satname,norad_id,inclination_deg,eccentricity,mean_motion_rev_per_day,perigee_km,apogee_km,l1,l2
STARLINK-1234,45190,53.0349,0.0004815,15.75582766,339.7371495849211,346.20957886567066,1 45190U 20012N   26165.39773111  .00069231  00000+0  44509-3 0  9991,2 45190  53.0349 207.6451 0004815 302.4745  57.5808 15.75582766351063
STARLINK-1269,45197,53.1562,3.62e-05,15.35629546,458.8037027642413,459.2987151905718,1 45197U 20012V   26165.69087746  .00043035  00000+0  12285-2 0  9992,2 45197  53.1562 307.7665 0000362 300.0973  59.9994 15.35629546349789
STARLINK-1154,45198,53.0419,0.000291,15.64346411,373.1539287573851,377.0843238228863,1 45198U 20012W   26165.55984586  .00039843  00000+0  41226-3 0  9996,2 45198  53.0419 261.7890 0002910   7.3387 352.7669 15.64346411350364
STARLINK-1199,45201,53.1571,0.0002837,15.35640234,457.0797832589551,460.95918584828996,1 45201U 20012Z   26165.66194262  .00045939  00000+0  13097-2 0  9994,2 45201  53.1571 292.1756 0002837 312.9637  47.1127 15.35640234350024
STARLINK-1209,45206,53.0367,0.0006992,15.66436522,364.39282529160664,373.8281761966473,1 45206U 20012AE  26165.44986188  .00045099  00000+0  42805-3 0  9998,2 45206  53.0367 222.4407 0006992 271.0400  88.9814 15.66436522350011
STARLINK-1231,45212,53.0391,0.0002359,15.28341899,479.1506283100116,482.38665999292243,1 45212U 20012AL  26165.61262883  .00033769  00000+0  12142-2 0  9994,2 45212  53.0391 287.9521 0002359  72.8018 287.3238 15.28341899350018
STARLINK-1271,45217,53.1577,0.0002475,15.35810841,456.82106294021924,460.205204756473,1 45217U 20012AR  26165.59352582  .00047339  00000+0  13417-2 0  9996,2 45217  53.1577 292.6048 0002475 309.7692  50.3093 15.35810841350019
STARLINK-1191,45222,53.1547,0.0002374,15.39846798,444.9417642610697,448.1821313214823,1 45222U 20012AW  26165.55587501  .00045433  00000+0  11306-2 0  9997,2 45222  53.1547 265.5888 0002374 268.0171  92.0563 15.39846798350390
STARLINK-1212,45223,53.0387,0.0001096,15.67894751,364.1872695427137,365.6653490201079,1 45223U 20012AX  26165.90815147  .00048151  00000+0  43082-3 0  9994,2 45223  53.0387 235.7244 0001096  53.9982 306.1135 15.67894751350823
STARLINK-1215,45225,53.1561,0.0003701,15.35993809,455.44015737923746,460.50024392916293,1 45225U 20012AZ  26165.59229920  .00043016  00000+0  12136-2 0  9999,2 45225  53.1561 266.8725 0003701 314.3997  45.6703 15.35993809350335
STARLINK-1221,45227,53.0626,0.0002933,15.45047958,429.2399712551196,433.23435013778544,1 45227U 20012BB  26165.71093135  .00012873  00000+0  27671-3 0  9990,2 45227  53.0626 168.7256 0002933 349.1368  10.9574 15.45047958351698
STARLINK-1222,45228,53.0515,0.0003322,15.55714466,397.8248372194166,402.32828230852283,1 45228U 20012BC  26165.89116734  .00026341  00000+0  38154-3 0  9994,2 45228  53.0515 234.6713 0003322  14.5331 345.5775 15.55714466350722
STARLINK-1226,45229,53.1562,0.0003859,15.44950049,428.89699871750145,434.15269573118894,1 45229U 20012BD  26165.51732835  .00050737  00000+0  10627-2 0  9990,2 45229  53.1562 262.8413 0003859 313.1992  46.8692 15.44950049350324
STARLINK-1227,45230,53.154,0.0003902,15.45058116,428.550308979743,433.86432128327124,1 45230U 20012BE  26165.59141188  .00050976  00000+0  10637-2 0  9991,2 45230  53.1540 262.5908 0003902 304.5088  55.5550 15.45058116350456
STARLINK-1246,45235,53.1557,0.0001669,15.35670199,457.78943698251896,460.07165012855694,1 45235U 20012BK  26165.63228152  .00059636  00000+0  16923-2 0  9994,2 45235  53.1557 307.6691 0001669 280.0649  80.0166 15.35670199349834
STARLINK-1270,45237,53.0399,0.0003763,15.63770437,374.23540728110675,379.31915576938354,1 45237U 20012BM  26165.49513627  .00089926  00000+0  93875-3 0  9991,2 45237  53.0399 239.3619 0003763 332.0020  28.0791 15.63770437350732
STARLINK-1279,45360,53.035,0.0001433,15.79001154,332.3077378443768,334.23122694223,1 45360U 20019A   26166.00004630  .00703508  00000+0  35764-2 0  9993,2 45360  53.0350 339.3749 0001433  63.2323 263.9326 15.79001154  5957
STARLINK-1301,45361,53.0351,8.55e-05,15.81687905,325.0938857557039,326.24023625013524,1 45361U 20019B   26165.76534234  .00104318  00000+0  50622-3 0  9999,2 45361  53.0351 342.8509 0000855 320.8282  39.2678 15.81687905345874
STARLINK-1262,45366,53.1553,0.0003456,15.34707026,459.42696730490024,464.1547254323086,1 45366U 20019G   26165.93335105  .00019622  00000+0  58460-3 0  9990,2 45366  53.1553  72.7631 0003456 103.3201 256.8187 15.34707026344656
STARLINK-1273,45367,53.0443,0.0004447,15.57942626,390.60084838422154,396.6236421629683,1 45367U 20019H   26165.94170109  .00044744  00000+0  59073-3 0  9997,2 45367  53.0443  47.1595 0004447  87.9832 272.1688 15.57942626344993
STARLINK-1277,45369,53.0421,0.0004068,15.65129611,370.1197177793156,375.6123338411144,1 45369U 20019K   26165.92570488  .00044781  00000+0  44820-3 0  9996,2 45369  53.0421  40.8885 0004068  76.5224 283.6244 15.65129611345087
STARLINK-1281,45370,53.1577,0.0004771,15.35547945,456.03129344482477,462.5555695625653,1 45370U 20019L   26165.94076137  .00044325  00000+0  12678-2 0  9991,2 45370  53.1577  72.3127 0004771  93.1268 267.0281 15.35547945344666
STARLINK-1300,45374,53.158,0.0004318,15.36129595,454.6156863069582,460.519000577955,1 45374U 20019Q   26165.95047970  .00046425  00000+0  13026-2 0  9990,2 45374  53.1580  72.1475 0004318 111.0668 249.0797 15.36129595344669
STARLINK-1302,45375,53.0463,0.0004507,15.68070292,361.384183595218,367.4619272291666,1 45375U 20019R   26165.90824798  .00047712  00000+0  42377-3 0  9999,2 45375  53.0463  36.9054 0004507  91.3930 268.7602 15.68070292345132
STARLINK-1304,45376,53.0419,0.0004124,15.63882912,373.6678073805797,379.23899354288096,1 45376U 20019S   26165.92940862  .00095637  00000+0  99285-3 0  9992,2 45376  53.0419  38.3358 0004124 108.0850 252.0613 15.63882912345110
STARLINK-1305,45377,53.0378,0.0002431,15.72455313,350.24607975077924,353.5182150602486,1 45377U 20019T   26165.84405657  .00061626  00000+0  45433-3 0  9999,2 45377  53.0378  16.8466 0002431 252.8560 107.2191 15.72455313345417
STARLINK-1319,45379,53.0376,0.0002086,15.78743748,332.5988177434592,335.3991208698526,1 45379U 20019V   26165.91216993  .00086710  00000+0  48293-3 0  9990,2 45379  53.0376   7.8970 0002086 109.8879 250.2367 15.78743748345543
STARLINK-1266,45383,53.0456,8.95e-05,15.66551782,368.17569242986065,369.3833904907824,1 45383U 20019Z   26165.86954977  .00044409  00000+0  42012-3 0  9992,2 45383  53.0456  23.4468 0000895 190.1647 169.9350 15.66551782345310
STARLINK-1267,45384,53.0437,0.000569,15.66019027,366.4697758230859,374.1495081016392,1 45384U 20019AA  26165.77583543  .00043013  00000+0  41567-3 0  9994,2 45384  53.0437  15.1558 0005690 135.1024 225.0452 15.66019027345424
STARLINK-1272,45386,53.0397,0.0005764,15.70644961,353.17041394614535,360.93474049076303,1 45386U 20019AC  26165.77674343  .00057226  00000+0  45552-3 0  9994,2 45386  53.0397 353.6934 0005764 114.5691 245.5927 15.70644961345725
STARLINK-1274,45387,53.0203,0.0006672,15.62993043,374.5085407630286,383.52528694567627,1 45387U 20019AD  26164.81497332  .00094456  00000+0  10150-2 0  9991,2 45387  53.0203 357.9934 0006672 168.4910 191.6257 15.62993043345579
STARLINK-1280,45388,53.0366,6.86e-05,15.83707695,319.50653754582436,320.42551728118633,1 45388U 20019AE  26165.83060830  .00118485  00000+0  52180-3 0  9993,2 45388  53.0366   0.3374 0000686 297.7078  62.3874 15.83707695345621
STARLINK-1283,45389,53.0403,0.0001992,15.72475618,350.48360359347316,353.1648201402804,1 45389U 20019AF  26165.78599795  .00061619  00000+0  45391-3 0  9997,2 45389  53.0403 352.6384 0001992 175.4223 184.6813 15.72475618345742
STARLINK-1284,45390,53.0401,0.000361,15.70794041,354.19517459860344,359.0576737908723,1 45390U 20019AG  26165.87475597  .00057699  00000+0  45661-3 0  9995,2 45390  53.0401  16.1708 0003610  56.8920 303.2443 15.70794041345413
STARLINK-1297,45395,53.0413,0.0005267,15.69085964,357.96332069062737,365.0628681000635,1 45395U 20019AM  26165.89697642  .00052193  00000+0  44393-3 0  9994,2 45395  53.0413  15.1833 0005267  75.6413 284.5187 15.69085964344617
STARLINK-1307,45397,53.0526,0.0001615,15.57196118,394.68230219021007,396.8702761826171,1 45397U 20019AP  26165.87563788  .00033956  00000+0  46334-3 0  9990,2 45397  53.0526  21.8017 0001615 136.8286 223.2852 15.57196118345164
STARLINK-1255,45399,53.0346,0.0003979,15.66409439,366.5035124372189,371.873033889603,1 45399U 20019AR  26165.23580142  .00049654  00000+0  47137-3 0  9999,2 45399  53.0346 352.3301 0003979 134.1623 225.9719 15.66409439345507
STARLINK-1260,45404,53.1562,0.0005091,15.38651139,446.6208058713428,453.5733137910629,1 45404U 20019AW  26166.00004630  .00065106  00000+0  16755-2 0  9996,2 45404  53.1562  34.5918 0005091 113.3062  55.0179 15.38651139  5848
STARLINK-1263,45405,53.158,0.000359,15.3563538,456.5793479377162,461.4884366383785,1 45405U 20019AX  26165.95357668  .00044302  00000+0  12638-2 0  9993,2 45405  53.1580  36.2148 0003590 133.2116 226.9187 15.35635380344881
STARLINK-1265,45406,53.1565,0.0003711,15.38945717,446.692044704796,451.75931328514525,1 45406U 20019AY  26165.96057664  .00048539  00000+0  12427-2 0  9990,2 45406  53.1565  34.7488 0003711 103.4283 256.7135 15.38945717344902
STARLINK-1278,45408,53.0407,0.0005201,15.70011736,355.35952184958387,362.3673497028776,1 45408U 20019BA  26165.85557333  .00053862  00000+0  44071-3 0  9994,2 45408  53.0407  14.2714 0005201 105.0242 255.1351 15.70011736345165
STARLINK-1296,45412,53.1549,0.0004366,15.39130961,445.69727021673316,451.65844495037527,1 45412U 20019BE  26165.93439666  .00047538  00000+0  12100-2 0  9996,2 45412  53.1549  34.5532 0004366 100.9863 259.1633 15.39130961344900
STARLINK-1309,45414,53.0606,0.0005294,15.68875739,358.5468544186351,365.68343338859995,1 45414U 20019BG  26164.86101287  .00054352  00000+0  46598-3 0  9995,2 45414  53.0606  13.1897 0005294  69.1463 291.0120 15.68875739345071
